{
  "type": "FeatureCollection",
  "features": [
    {
      "type": "Feature",
      "properties": {
        "norad_id": 66531,
        "name": "STARLINK-35960",
        "group": "last-30-days",
        "lat": 29.586295297535163,
        "lon": -143.58655999037853,
        "alt_km": 403.7524131513228,
        "timestamp": "2025-12-09T07:41:31.972510+00:00",
        "meta_object_name": "STARLINK-35960",
        "meta_object_id": "2025-265R",
        "meta_epoch": "2025-12-08T22:00:03.000096",
        "meta_mean_motion": 15.54987206,
        "meta_eccentricity": 0.0001649,
        "meta_inclination": 43.0005,
        "meta_ra_of_asc_node": 76.3256,
        "meta_arg_of_pericenter": 280.1282,
        "meta_mean_anomaly": 111.5243,
        "meta_ephemeris_type": 0,
        "meta_classification_type": "U",
        "meta_norad_cat_id": 66531,
        "meta_element_set_no": 999,
        "meta_rev_at_epoch": 438,
        "meta_bstar": -0.033317196,
        "meta_mean_motion_dot": -0.02045885,
        "meta_mean_motion_ddot": 0,
        "tle_line1": "1 66531U 25265R   25342.91670139 -.02045885  00000+0 -33317-1 0  9994",
        "tle_line2": "2 66531  43.0005  76.3256 0001649 280.1282 111.5243 15.54987206  4386"
      },
      "geometry": {
        "type": "Point",
        "coordinates": [
          -143.58655999037853,
          29.586295297535163
        ]
      }
    },
    {
      "type": "Feature",
      "properties": {
        "norad_id": 66532,
        "name": "STARLINK-35914",
        "group": "last-30-days",
        "lat": 28.537070345438813,
        "lon": -141.75515751411166,
        "alt_km": 403.9474499416483,
        "timestamp": "2025-12-09T07:41:31.972520+00:00",
        "meta_object_name": "STARLINK-35914",
        "meta_object_id": "2025-265S",
        "meta_epoch": "2025-12-08T22:00:03.000096",
        "meta_mean_motion": 15.5498449,
        "meta_eccentricity": 0.00016944,
        "meta_inclination": 43.0004,
        "meta_ra_of_asc_node": 76.3209,
        "meta_arg_of_pericenter": 281.1836,
        "meta_mean_anomaly": 112.3885,
        "meta_ephemeris_type": 0,
        "meta_classification_type": "U",
        "meta_norad_cat_id": 66532,
        "meta_element_set_no": 999,
        "meta_rev_at_epoch": 438,
        "meta_bstar": -0.033314177,
        "meta_mean_motion_dot": -0.02045565,
        "meta_mean_motion_ddot": 0,
        "tle_line1": "1 66532U 25265S   25342.91670139 -.02045565  00000+0 -33314-1 0  9997",
        "tle_line2": "2 66532  43.0004  76.3209 0001694 281.1836 112.3885 15.54984490  4383"
      },
      "geometry": {
        "type": "Point",
        "coordinates": [
          -141.75515751411166,
          28.537070345438813
        ]
      }
    },
    {
      "type": "Feature",
      "properties": {
        "norad_id": 66533,
        "name": "STARLINK-35707",
        "group": "last-30-days",
        "lat": 27.462578020051712,
        "lon": -139.95869286663634,
        "alt_km": 404.02315723255015,
        "timestamp": "2025-12-09T07:41:31.972530+00:00",
        "meta_object_name": "STARLINK-35707",
        "meta_object_id": "2025-265T",
        "meta_epoch": "2025-12-08T22:00:03.000096",
        "meta_mean_motion": 15.54986714,
        "meta_eccentricity": 0.00016123,
        "meta_inclination": 43.0004,
        "meta_ra_of_asc_node": 76.316,
        "meta_arg_of_pericenter": 279.6074,
        "meta_mean_anomaly": 115.8802,
        "meta_ephemeris_type": 0,
        "meta_classification_type": "U",
        "meta_norad_cat_id": 66533,
        "meta_element_set_no": 999,
        "meta_rev_at_epoch": 438,
        "meta_bstar": -0.033327832,
        "meta_mean_motion_dot": -0.02046411,
        "meta_mean_motion_ddot": 0,
        "tle_line1": "1 66533U 25265T   25342.91670139 -.02046411  00000+0 -33328-1 0  9994",
        "tle_line2": "2 66533  43.0004  76.3160 0001612 279.6074 115.8802 15.54986714  4384"
      },
      "geometry": {
        "type": "Point",
        "coordinates": [
          -139.95869286663634,
          27.462578020051712
        ]
      }
    },
    {
      "type": "Feature",
      "properties": {
        "norad_id": 66534,
        "name": "STARLINK-35976",
        "group": "last-30-days",
        "lat": 26.36647607724617,
        "lon": -138.19805278158108,
        "alt_km": 404.24053830174034,
        "timestamp": "2025-12-09T07:41:31.972543+00:00",
        "meta_object_name": "STARLINK-35976",
        "meta_object_id": "2025-265U",
        "meta_epoch": "2025-12-08T22:00:03.000096",
        "meta_mean_motion": 15.54981732,
        "meta_eccentricity": 0.00016678,
        "meta_inclination": 43.0006,
        "meta_ra_of_asc_node": 76.3119,
        "meta_arg_of_pericenter": 282.0343,
        "meta_mean_anomaly": 115.3722,
        "meta_ephemeris_type": 0,
        "meta_classification_type": "U",
        "meta_norad_cat_id": 66534,
        "meta_element_set_no": 999,
        "meta_rev_at_epoch": 438,
        "meta_bstar": -0.033225102,
        "meta_mean_motion_dot": -0.02040477,
        "meta_mean_motion_ddot": 0,
        "tle_line1": "1 66534U 25265U   25342.91670139 -.02040477  00000+0 -33225-1 0  9997",
        "tle_line2": "2 66534  43.0006  76.3119 0001667 282.0343 115.3722 15.54981732  4389"
      },
      "geometry": {
        "type": "Point",
        "coordinates": [
          -138.19805278158108,
          26.36647607724617
        ]
      }
    },
    {
      "type": "Feature",
      "properties": {
        "norad_id": 66535,
        "name": "STARLINK-35514",
        "group": "last-30-days",
        "lat": 25.24829519483834,
        "lon": -136.4705493503663,
        "alt_km": 404.2550453809981,
        "timestamp": "2025-12-09T07:41:31.972553+00:00",
        "meta_object_name": "STARLINK-35514",
        "meta_object_id": "2025-265V",
        "meta_epoch": "2025-12-08T22:00:03.000096",
        "meta_mean_motion": 15.54985487,
        "meta_eccentricity": 0.00015608,
        "meta_inclination": 43.0006,
        "meta_ra_of_asc_node": 76.3071,
        "meta_arg_of_pericenter": 276.8754,
        "meta_mean_anomaly": 122.4471,
        "meta_ephemeris_type": 0,
        "meta_classification_type": "U",
        "meta_norad_cat_id": 66535,
        "meta_element_set_no": 999,
        "meta_rev_at_epoch": 438,
        "meta_bstar": -0.033293771,
        "meta_mean_motion_dot": -0.02044427,
        "meta_mean_motion_ddot": 0,
        "tle_line1": "1 66535U 25265V   25342.91670139 -.02044427  00000+0 -33294-1 0  9993",
        "tle_line2": "2 66535  43.0006  76.3071 0001560 276.8754 122.4471 15.54985487  4387"
      },
      "geometry": {
        "type": "Point",
        "coordinates": [
          -136.4705493503663,
          25.24829519483834
        ]
      }
    },
    {
      "type": "Feature",
      "properties": {
        "norad_id": 66536,
        "name": "STARLINK-35640",
        "group": "last-30-days",
        "lat": 24.111041595150155,
        "lon": -134.7762617064764,
        "alt_km": 404.57672852499945,
        "timestamp": "2025-12-09T07:41:31.972563+00:00",
        "meta_object_name": "STARLINK-35640",
        "meta_object_id": "2025-265W",
        "meta_epoch": "2025-12-08T22:00:03.000096",
        "meta_mean_motion": 15.54984597,
        "meta_eccentricity": 0.00017102,
        "meta_inclination": 43.0004,
        "meta_ra_of_asc_node": 76.3023,
        "meta_arg_of_pericenter": 282.462,
        "meta_mean_anomaly": 118.775,
        "meta_ephemeris_type": 0,
        "meta_classification_type": "U",
        "meta_norad_cat_id": 66536,
        "meta_element_set_no": 999,
        "meta_rev_at_epoch": 436,
        "meta_bstar": -0.033235784,
        "meta_mean_motion_dot": -0.02041284,
        "meta_mean_motion_ddot": 0,
        "tle_line1": "1 66536U 25265W   25342.91670139 -.02041284  00000+0 -33236-1 0  9998",
        "tle_line2": "2 66536  43.0004  76.3023 0001710 282.4620 118.7750 15.54984597  4362"
      },
      "geometry": {
        "type": "Point",
        "coordinates": [
          -134.7762617064764,
          24.111041595150155
        ]
      }
    },
    {
      "type": "Feature",
      "properties": {
        "norad_id": 66537,
        "name": "STARLINK-35582",
        "group": "last-30-days",
        "lat": 22.95439990625337,
        "lon": -133.1107872760271,
        "alt_km": 404.6276115564624,
        "timestamp": "2025-12-09T07:41:31.972573+00:00",
        "meta_object_name": "STARLINK-35582",
        "meta_object_id": "2025-265X",
        "meta_epoch": "2025-12-08T22:00:03.000096",
        "meta_mean_motion": 15.54988359,
        "meta_eccentricity": 0.00016044,
        "meta_inclination": 43.0003,
        "meta_ra_of_asc_node": 76.2974,
        "meta_arg_of_pericenter": 279.4974,
        "meta_mean_anomaly": 123.6549,
        "meta_ephemeris_type": 0,
        "meta_classification_type": "U",
        "meta_norad_cat_id": 66537,
        "meta_element_set_no": 999,
        "meta_rev_at_epoch": 438,
        "meta_bstar": -0.033299551,
        "meta_mean_motion_dot": -0.02044968,
        "meta_mean_motion_ddot": 0,
        "tle_line1": "1 66537U 25265X   25342.91670139 -.02044968  00000+0 -33300-1 0  9993",
        "tle_line2": "2 66537  43.0003  76.2974 0001604 279.4974 123.6549 15.54988359  4389"
      },
      "geometry": {
        "type": "Point",
        "coordinates": [
          -133.1107872760271,
          22.95439990625337
        ]
      }
    }
  ]
}